#aV2014  5  8  0  0  0.00000000     288 DD+AD WGS84 FIT  NGA
## 1791 345600.00000000   300.00000000 56785 0.0000000000000
+   32     1  2  3  4  5  6  7  8  9 10 11 12 13 14 15 16 17
+         18 19 20 21 22 23 24 25 26 27 28 29 30 31 32  0  0
+          0  0  0  0  0  0  0  0  0  0  0  0  0  0  0  0  0
+          0  0  0  0  0  0  0  0  0  0  0  0  0  0  0  0  0
+          0  0  0  0  0  0  0  0  0  0  0  0  0  0  0  0  0
++         2  2  2  2  2  2  2  2  2  2  2  2  2  2  2  2  2
++         2  2  2  2  2  2  2  2  2  2  2  2  2  2  2  0  0
++         0  0  0  0  0  0  0  0  0  0  0  0  0  0  0  0  0
++         0  0  0  0  0  0  0  0  0  0  0  0  0  0  0  0  0
++         0  0  0  0  0  0  0  0  0  0  0  0  0  0  0  0  0
%c cc cc ccc ccc cccc cccc cccc cccc ccccc ccccc ccccc ccccc
%c cc cc ccc ccc cccc cccc cccc cccc ccccc ccccc ccccc ccccc
%f  0.0000000  0.000000000  0.00000000000  0.000000000000000
%f  0.0000000  0.000000000  0.00000000000  0.000000000000000
%i    0    0    0    0      0      0      0      0         0
%i    0    0    0    0      0      0      0      0         0
/*      NGA, ST. LOUIS,MO.                                  
/*   EPHEMERIS COMPUTED FROM  1 DAYS OF DATA                
/*   EPOCHA SMOOTHER                                       
/* CCCCCCCCCCCCCCCCCCCCCCCCCCCCCCCCCCCCCCCCCCCCCCCCCCCCCCCCC
*  2014  5  8 10 15  0.00000000
P  1 -12854.166537  22744.376385  -4386.259512     11.491672                    
V  1  -5611.098364   2776.850791  31184.666638      0.013230                    
P  2  19471.275483  -8477.510208 -15348.434671    494.129794                    
V  2  -9166.618752  18302.831486 -21827.194867      0.021758                    
P  3 -13798.611286   7050.204620  21033.231034    361.999087                    
V  3 -15062.637708 -23695.047498  -1736.997218      0.050803                    
P  4  15166.257864   5723.636719 -21374.929738      6.863576                    
V  4 -15035.799570  21805.743337  -4666.484842     -0.000183                    
P  5  25210.527764  -3224.597278   7957.745894   -374.186854                    
V  5   9790.299284   3881.459681 -29145.511665      0.024169                    
P  6      0.000000      0.000000      0.000000 999999.999999                    
V  6      0.000000      0.000000      0.000000 999999.999999                    
P  7  -1541.167624  20610.110565  16555.830807    343.944715                    
V  7 -14136.299168  15627.688502 -21182.315338      0.042303                    
P  8   6013.227189  14145.173904  21707.962018     13.428451                    
V  8 -19042.859890  19476.642554  -8059.935940      0.002568                    
P  9   9401.805876  11463.795688  21487.392413    326.003932                    
V  9 -17173.174322  22787.635358  -4713.072967      0.028594                    
P 10  23585.735501   9312.239755  -8934.767828   -124.679598                    
V 10 -11023.110934   1408.823673 -28300.964914     -0.015384                    
P 11 -12154.426849  22642.334444   5782.735958   -487.181441                    
V 11  -2363.636508  -9242.490405  29013.420490     -0.031928                    
P 12  12172.151488 -11854.699594 -20415.907945    203.574036                    
V 12  25384.501178   4527.368424  12762.828634      0.024599                    
P 13   3625.629399  25431.357208  -6534.830610      1.923654                    
V 13  -4689.064910  -7040.218688 -30784.761965     -0.038057                    
P 14 -14211.109731 -20338.184185  -9466.039617    174.770212                    
V 14  -2083.445291 -12293.989074  28731.210348     -0.034007                    
P 15   9094.132175 -14776.140421  19979.332974   -178.287758                    
V 15  12586.861109  22402.428130  11097.045939     -0.021560                    
P 16 -25388.169601   1373.878791   8254.628087   -219.496010                    
V 16 -10038.104261  -3183.576563 -29813.882447      0.018801                    
P 17  15104.214591  19440.730352  -9996.269244    -91.437480                    
V 17   2755.280114  12878.731181  28253.244994     -0.030768                    
P 18  -9017.592490 -15854.031704  19858.129832    317.956215                    
V 18  24295.336614   1061.957893  11822.497369      0.022703                    
P 19 -11118.164774  11910.595045  20743.770926   -455.634833                    
V 19  -9555.976787 -25001.792386   9614.392584     -0.022545                    
P 20  -9903.717520  14614.869744 -20015.064773    187.342383                    
V 20 -25072.975845  -2398.709634  10821.976944      0.038198                    
P 21  -2933.816323 -19366.251624  18373.743512   -359.860549                    
V 21  14653.151423 -16966.856523 -16571.763115     -0.022052                    
P 22 -20987.604381 -11251.086118  12141.355253    232.625041                    
V 22  15348.280840  -1614.282606  25314.263498      0.030337                    
P 23  -4123.316320  20069.235126 -16563.424246    -18.782487                    
V 23 -10627.948003 -18739.605668 -20345.479097     -0.031317                    
P 24  15566.222708 -21453.437785    413.882263    -28.027938                    
V 24   2153.293552   2206.156842  31719.604110     -0.005706                    
P 25  -1710.338912 -15051.255376 -21897.171487     23.456219                    
V 25  27457.792884   2561.111572  -3785.756924      0.006716                    
P 26  14716.416642  -1731.051208  21407.681698     85.244499                    
V 26   8921.586337  27281.277431  -3528.779018     -0.116681                    
P 27 -16109.633051     -6.398960  21122.509269    -17.281627                    
V 27 -10407.088703 -24718.593154  -7885.948464      0.015760                    
P 28  17481.825404  13380.308664  15558.087636    353.170628                    
V 28 -18509.206901  -1937.228631  23252.161951      0.029412                    
P 29  -4073.276192 -25122.566575  -7647.393710    531.058979                    
V 29   5714.465579   8237.848969 -29896.726312      0.026916                    
P 30   6622.886429  14896.868928  20954.124793     -8.409176                    
V 30 -17872.466684  19770.608995  -8428.769771     -0.046079                    
P 31 -16585.344917  -1235.509018 -20628.455558    334.249812                    
V 31  15613.268503 -21316.328708 -10893.857935     -0.000000                    
P 32 -21020.177526   6520.891672 -14409.933117   -433.400875                    
V 32 -17802.145784  -6218.930309  23594.252263      0.080668                    
EOF
